ONEWEB-0266             
1 48984U 21060T   26051.09435798  .00000115  00000+0  26761-3 0  9992
2 48984  87.8998 252.0764 0001756  95.1491 264.9841 13.16595278224175
ONEWEB-0267             
1 48985U 21060U   26051.10542993  .00000036  00000+0  59467-4 0  9993
2 48985  87.8999 252.0702 0001418 100.0256 260.1035 13.16595852224181
ONEWEB-0268             
1 48986U 21060V   26051.07377431  .00000038  00000+0  66681-4 0  9991
2 48986  87.8997 252.0865 0001496  91.6786 268.4517 13.16595192224441
ONEWEB-0269             
1 48987U 21060W   26051.05476490 -.00000009  00000+0 -56016-4 0  9996
2 48987  87.8986 252.1054 0001554  84.5181 275.6127 13.16595495224214
ONEWEB-0270             
1 48988U 21060X   26051.07219244  .00000039  00000+0  68650-4 0  9999
2 48988  87.8998 252.0883 0001639 107.8193 252.3117 13.16595394224256
ONEWEB-0271             
1 48989U 21060Y   26051.05954238  .00000058  00000+0  11864-3 0  9992
2 48989  87.8996 252.0816 0001469 101.7542 258.3754 13.16595075224252
ONEWEB-0272             
1 48990U 21060Z   26051.08169440 -.00001448  00000+0 -38222-2 0  9992
2 48990  87.8999 252.0880 0001165  98.7530 261.3733 13.16602527224200
ONEWEB-0273             
1 48991U 21060AA  26051.10385444 -.00000032  00000+0 -11774-3 0  9992
2 48991  87.8999 252.0824 0001557  99.0808 261.0499 13.16596016224184
ONEWEB-0274             
1 48992U 21060AB  26051.05318974  .00000006  00000+0 -17109-4 0  9990
2 48992  87.8986 252.1077 0001244  84.9157 275.2116 13.16595395224211
ONEWEB-0275             
1 48993U 21060AC  26051.04210420 -.00000027  00000+0 -10316-3 0  9993
2 48993  87.8995 252.0869 0001461  93.1269 267.0029 13.16595676224143
ONEWEB-0276             
1 48994U 21060AD  26051.07536093  .00000024  00000+0  28272-4 0  9990
2 48994  87.8997 252.0807 0001706  98.0687 262.0637 13.16595435224163
ONEWEB-0277             
1 48995U 21060AE  26051.08800166  .00000087  00000+0  19483-3 0  9999
2 48995  87.8985 252.0957 0001566  99.1273 261.0035 13.16596960224158
ONEWEB-0278             
1 48996U 21060AF  26051.07852190  .00000047  00000+0  90287-4 0  9991
2 48996  87.8998 252.0766 0001762  88.8110 271.3223 13.16595473224289
ONEWEB-0279             
1 48997U 21060AG  26051.08643372  .00000051  00000+0  10035-3 0  9990
2 48997  87.8997 252.0746 0001385 103.7675 256.3611 13.16595805224217
ONEWEB-0280             
1 48998U 21060AH  26051.10148672  .00000021  00000+0  22390-4 0  9992
2 48998  87.8999 252.0760 0001893 102.7900 257.3443 13.16593630224151
ONEWEB-0281             
1 48999U 21060AJ  26051.10702014 -.00000034  00000+0 -12216-3 0  9990
2 48999  87.8998 252.0697 0001480  89.7791 270.3510 13.16595762224220
