[{"OBJECT_NAME":"ONEWEB-0266","OBJECT_ID":"2021-060T","EPOCH":"2026-02-20T02:15:52.529472","MEAN_MOTION":13.16595278,"ECCENTRICITY":0.00017563,"INCLINATION":87.8998,"RA_OF_ASC_NODE":252.0764,"ARG_OF_PERICENTER":95.1491,"MEAN_ANOMALY":264.9841,"EPHEMERIS_TYPE":0,"CLASSIFICATION_TYPE":"U","NORAD_CAT_ID":48984,"ELEMENT_SET_NO":999,"REV_AT_EPOCH":22417,"BSTAR":0.00026760851,"MEAN_MOTION_DOT":1.15e-6,"MEAN_MOTION_DDOT":0},{"OBJECT_NAME":"ONEWEB-0267","OBJECT_ID":"2021-060U","EPOCH":"2026-02-20T02:31:49.145952","MEAN_MOTION":13.16595852,"ECCENTRICITY":0.00014188,"INCLINATION":87.8999,"RA_OF_ASC_NODE":252.0702,"ARG_OF_PERICENTER":100.0256,"MEAN_ANOMALY":260.1035,"EPHEMERIS_TYPE":0,"CLASSIFICATION_TYPE":"U","NORAD_CAT_ID":48985,"ELEMENT_SET_NO":999,"REV_AT_EPOCH":22418,"BSTAR":5.9466766e-5,"MEAN_MOTION_DOT":3.6e-7,"MEAN_MOTION_DDOT":0},{"OBJECT_NAME":"ONEWEB-0268","OBJECT_ID":"2021-060V","EPOCH":"2026-02-20T01:46:14.100384","MEAN_MOTION":13.16595192,"ECCENTRICITY":0.00014967,"INCLINATION":87.8997,"RA_OF_ASC_NODE":252.0865,"ARG_OF_PERICENTER":91.6786,"MEAN_ANOMALY":268.4517,"EPHEMERIS_TYPE":0,"CLASSIFICATION_TYPE":"U","NORAD_CAT_ID":48986,"ELEMENT_SET_NO":999,"REV_AT_EPOCH":22444,"BSTAR":6.6680694e-5,"MEAN_MOTION_DOT":3.8e-7,"MEAN_MOTION_DDOT":0},{"OBJECT_NAME":"ONEWEB-0269","OBJECT_ID":"2021-060W","EPOCH":"2026-02-20T01:18:51.687360","MEAN_MOTION":13.16595495,"ECCENTRICITY":0.00015544,"INCLINATION":87.8986,"RA_OF_ASC_NODE":252.1054,"ARG_OF_PERICENTER":84.5181,"MEAN_ANOMALY":275.6127,"EPHEMERIS_TYPE":0,"CLASSIFICATION_TYPE":"U","NORAD_CAT_ID":48987,"ELEMENT_SET_NO":999,"REV_AT_EPOCH":22421,"BSTAR":-5.6016126e-5,"MEAN_MOTION_DOT":-9.0e-8,"MEAN_MOTION_DDOT":0},{"OBJECT_NAME":"ONEWEB-0270","OBJECT_ID":"2021-060X","EPOCH":"2026-02-20T01:43:57.426816","MEAN_MOTION":13.16595394,"ECCENTRICITY":0.00016392,"INCLINATION":87.8998,"RA_OF_ASC_NODE":252.0883,"ARG_OF_PERICENTER":107.8193,"MEAN_ANOMALY":252.3117,"EPHEMERIS_TYPE":0,"CLASSIFICATION_TYPE":"U","NORAD_CAT_ID":48988,"ELEMENT_SET_NO":999,"REV_AT_EPOCH":22425,"BSTAR":6.8649813e-5,"MEAN_MOTION_DOT":3.9e-7,"MEAN_MOTION_DDOT":0},{"OBJECT_NAME":"ONEWEB-0271","OBJECT_ID":"2021-060Y","EPOCH":"2026-02-20T01:25:44.461632","MEAN_MOTION":13.16595075,"ECCENTRICITY":0.00014699,"INCLINATION":87.8996,"RA_OF_ASC_NODE":252.0816,"ARG_OF_PERICENTER":101.7542,"MEAN_ANOMALY":258.3754,"EPHEMERIS_TYPE":0,"CLASSIFICATION_TYPE":"U","NORAD_CAT_ID":48989,"ELEMENT_SET_NO":999,"REV_AT_EPOCH":22425,"BSTAR":0.00011864223,"MEAN_MOTION_DOT":5.8e-7,"MEAN_MOTION_DDOT":0},{"OBJECT_NAME":"ONEWEB-0272","OBJECT_ID":"2021-060Z","EPOCH":"2026-02-20T01:57:38.396160","MEAN_MOTION":13.16602527,"ECCENTRICITY":0.00011659,"INCLINATION":87.8999,"RA_OF_ASC_NODE":252.088,"ARG_OF_PERICENTER":98.753,"MEAN_ANOMALY":261.3733,"EPHEMERIS_TYPE":0,"CLASSIFICATION_TYPE":"U","NORAD_CAT_ID":48990,"ELEMENT_SET_NO":999,"REV_AT_EPOCH":22420,"BSTAR":-0.0038222023,"MEAN_MOTION_DOT":-1.448e-5,"MEAN_MOTION_DDOT":0},{"OBJECT_NAME":"ONEWEB-0273","OBJECT_ID":"2021-060AA","EPOCH":"2026-02-20T02:29:33.023616","MEAN_MOTION":13.16596016,"ECCENTRICITY":0.00015579,"INCLINATION":87.8999,"RA_OF_ASC_NODE":252.0824,"ARG_OF_PERICENTER":99.0808,"MEAN_ANOMALY":261.0499,"EPHEMERIS_TYPE":0,"CLASSIFICATION_TYPE":"U","NORAD_CAT_ID":48991,"ELEMENT_SET_NO":999,"REV_AT_EPOCH":22418,"BSTAR":-0.00011773989,"MEAN_MOTION_DOT":-3.2e-7,"MEAN_MOTION_DDOT":0},{"OBJECT_NAME":"ONEWEB-0274","OBJECT_ID":"2021-060AB","EPOCH":"2026-02-20T01:16:35.593536","MEAN_MOTION":13.16595395,"ECCENTRICITY":0.00012446,"INCLINATION":87.8986,"RA_OF_ASC_NODE":252.1077,"ARG_OF_PERICENTER":84.9157,"MEAN_ANOMALY":275.2116,"EPHEMERIS_TYPE":0,"CLASSIFICATION_TYPE":"U","NORAD_CAT_ID":48992,"ELEMENT_SET_NO":999,"REV_AT_EPOCH":22421,"BSTAR":-1.7108783e-5,"MEAN_MOTION_DOT":6.0e-8,"MEAN_MOTION_DDOT":0},{"OBJECT_NAME":"ONEWEB-0275","OBJECT_ID":"2021-060AC","EPOCH":"2026-02-20T01:00:37.802880","MEAN_MOTION":13.16595676,"ECCENTRICITY":0.00014617,"INCLINATION":87.8995,"RA_OF_ASC_NODE":252.0869,"ARG_OF_PERICENTER":93.1269,"MEAN_ANOMALY":267.0029,"EPHEMERIS_TYPE":0,"CLASSIFICATION_TYPE":"U","NORAD_CAT_ID":48993,"ELEMENT_SET_NO":999,"REV_AT_EPOCH":22414,"BSTAR":-0.00010316183,"MEAN_MOTION_DOT":-2.7e-7,"MEAN_MOTION_DDOT":0},{"OBJECT_NAME":"ONEWEB-0276","OBJECT_ID":"2021-060AD","EPOCH":"2026-02-20T01:48:31.184352","MEAN_MOTION":13.16595435,"ECCENTRICITY":0.0001706,"INCLINATION":87.8997,"RA_OF_ASC_NODE":252.0807,"ARG_OF_PERICENTER":98.0687,"MEAN_ANOMALY":262.0637,"EPHEMERIS_TYPE":0,"CLASSIFICATION_TYPE":"U","NORAD_CAT_ID":48994,"ELEMENT_SET_NO":999,"REV_AT_EPOCH":22416,"BSTAR":2.8272353e-5,"MEAN_MOTION_DOT":2.4e-7,"MEAN_MOTION_DDOT":0},{"OBJECT_NAME":"ONEWEB-0277","OBJECT_ID":"2021-060AE","EPOCH":"2026-02-20T02:06:43.343424","MEAN_MOTION":13.1659696,"ECCENTRICITY":0.00015664,"INCLINATION":87.8985,"RA_OF_ASC_NODE":252.0957,"ARG_OF_PERICENTER":99.1273,"MEAN_ANOMALY":261.0035,"EPHEMERIS_TYPE":0,"CLASSIFICATION_TYPE":"U","NORAD_CAT_ID":48995,"ELEMENT_SET_NO":999,"REV_AT_EPOCH":22415,"BSTAR":0.00019483211,"MEAN_MOTION_DOT":8.7e-7,"MEAN_MOTION_DDOT":0},{"OBJECT_NAME":"ONEWEB-0278","OBJECT_ID":"2021-060AF","EPOCH":"2026-02-20T01:53:04.292160","MEAN_MOTION":13.16595473,"ECCENTRICITY":0.00017621,"INCLINATION":87.8998,"RA_OF_ASC_NODE":252.0766,"ARG_OF_PERICENTER":88.811,"MEAN_ANOMALY":271.3223,"EPHEMERIS_TYPE":0,"CLASSIFICATION_TYPE":"U","NORAD_CAT_ID":48996,"ELEMENT_SET_NO":999,"REV_AT_EPOCH":22428,"BSTAR":9.028747e-5,"MEAN_MOTION_DOT":4.7e-7,"MEAN_MOTION_DDOT":0},{"OBJECT_NAME":"ONEWEB-0279","OBJECT_ID":"2021-060AG","EPOCH":"2026-02-20T02:04:27.873408","MEAN_MOTION":13.16595805,"ECCENTRICITY":0.00013856,"INCLINATION":87.8997,"RA_OF_ASC_NODE":252.0746,"ARG_OF_PERICENTER":103.7675,"MEAN_ANOMALY":256.3611,"EPHEMERIS_TYPE":0,"CLASSIFICATION_TYPE":"U","NORAD_CAT_ID":48997,"ELEMENT_SET_NO":999,"REV_AT_EPOCH":22421,"BSTAR":0.00010035254,"MEAN_MOTION_DOT":5.1e-7,"MEAN_MOTION_DDOT":0},{"OBJECT_NAME":"ONEWEB-0280","OBJECT_ID":"2021-060AH","EPOCH":"2026-02-20T02:26:08.452608","MEAN_MOTION":13.1659363,"ECCENTRICITY":0.00018931,"INCLINATION":87.8999,"RA_OF_ASC_NODE":252.076,"ARG_OF_PERICENTER":102.79,"MEAN_ANOMALY":257.3443,"EPHEMERIS_TYPE":0,"CLASSIFICATION_TYPE":"U","NORAD_CAT_ID":48998,"ELEMENT_SET_NO":999,"REV_AT_EPOCH":22415,"BSTAR":2.2390461e-5,"MEAN_MOTION_DOT":2.1e-7,"MEAN_MOTION_DDOT":0},{"OBJECT_NAME":"ONEWEB-0281","OBJECT_ID":"2021-060AJ","EPOCH":"2026-02-20T02:34:06.540096","MEAN_MOTION":13.16595762,"ECCENTRICITY":0.00014807,"INCLINATION":87.8998,"RA_OF_ASC_NODE":252.0697,"ARG_OF_PERICENTER":89.7791,"MEAN_ANOMALY":270.351,"EPHEMERIS_TYPE":0,"CLASSIFICATION_TYPE":"U","NORAD_CAT_ID":48999,"ELEMENT_SET_NO":999,"REV_AT_EPOCH":22422,"BSTAR":-0.00012215586,"MEAN_MOTION_DOT":-3.4e-7,"MEAN_MOTION_DDOT":0}]
